start=new Date('2023-05-31T00:00:00.000Z').valueOf();
sats=[{"MEAN_ELEMENT_THEORY":"SGP4","BSTAR":"0.00003758300000","CLASSIFICATION_TYPE":"U","SITE":"AFWTR","RCS_SIZE":"LARGE","LAUNCH_DATE":"2022-08-12","ECCENTRICITY":"0.00043790","PERIOD":"95.919","DECAY_DATE":null,"TLE_LINE2":"2 53495  97.6566 272.2188 0004379 196.1605 163.9480 15.01263427 43883","RA_OF_ASC_NODE":"272.2188","GP_ID":"232855405","ELEMENT_SET_NO":"999","PERIAPSIS":"559.962","REF_FRAME":"TEME","SEMIMAJOR_AXIS":"6941.136","MEAN_ANOMALY":"163.9480","OBJECT_ID":"2022-099AG","MEAN_MOTION_DDOT":"0.0000000000000","COUNTRY_CODE":"US","FILE":"3921192","MEAN_MOTION_DOT":"0.00000424","CENTER_NAME":"EARTH","OBJECT_NAME":"STARLINK-4429","TLE_LINE1":"1 53495U 22099AG  23150.89880939  .00000424  00000-0  37583-4 0  9993","EPOCH":"2023-05-30T21:34:17.131296","NORAD_CAT_ID":"53495","APOAPSIS":"566.041","ARG_OF_PERICENTER":"196.1605","REV_AT_EPOCH":"4388","EPHEMERIS_TYPE":"0","TIME_SYSTEM":"UTC","INCLINATION":"97.6566","OBJECT_TYPE":"PAYLOAD","MEAN_MOTION":"15.01263427"},{"NORAD_CAT_ID":"53496","OBJECT_NAME":"STARLINK-4465","TLE_LINE1":"1 53496U 22099AH  23150.90250974 -.00000285  00000-0 -17531-4 0  9994","EPOCH":"2023-05-30T21:39:36.841536","MEAN_MOTION_DOT":"-0.00000285","CENTER_NAME":"EARTH","OBJECT_ID":"2022-099AH","MEAN_MOTION_DDOT":"0.0000000000000","COUNTRY_CODE":"US","FILE":"3921192","INCLINATION":"97.6551","MEAN_MOTION":"15.01263940","OBJECT_TYPE":"PAYLOAD","TIME_SYSTEM":"UTC","ARG_OF_PERICENTER":"207.3303","REV_AT_EPOCH":"4388","EPHEMERIS_TYPE":"0","APOAPSIS":"566.302","ECCENTRICITY":"0.00047580","RCS_SIZE":"LARGE","LAUNCH_DATE":"2022-08-12","BSTAR":"-0.00001753100000","CLASSIFICATION_TYPE":"U","SITE":"AFWTR","MEAN_ELEMENT_THEORY":"SGP4","PERIAPSIS":"559.697","REF_FRAME":"TEME","SEMIMAJOR_AXIS":"6941.135","MEAN_ANOMALY":"152.7672","ELEMENT_SET_NO":"999","TLE_LINE2":"2 53496  97.6551 272.2181 0004758 207.3303 152.7672 15.01263940 43881","RA_OF_ASC_NODE":"272.2181","GP_ID":"232853653","DECAY_DATE":null,"PERIOD":"95.919"},{"BSTAR":"0.00003543000000","CLASSIFICATION_TYPE":"U","SITE":"AFWTR","MEAN_ELEMENT_THEORY":"SGP4","ECCENTRICITY":"0.00033760","RCS_SIZE":"LARGE","LAUNCH_DATE":"2022-08-12","TLE_LINE2":"2 53497  97.6583 272.2212 0003376 183.0122 177.1082 15.01262065 43889","RA_OF_ASC_NODE":"272.2212","GP_ID":"232853903","DECAY_DATE":null,"PERIOD":"95.919","PERIAPSIS":"560.662","REF_FRAME":"TEME","SEMIMAJOR_AXIS":"6941.140","MEAN_ANOMALY":"177.1082","ELEMENT_SET_NO":"999","MEAN_MOTION_DOT":"0.00000396","CENTER_NAME":"EARTH","OBJECT_ID":"2022-099AJ","MEAN_MOTION_DDOT":"0.0000000000000","COUNTRY_CODE":"US","FILE":"3921192","NORAD_CAT_ID":"53497","TLE_LINE1":"1 53497U 22099AJ  23150.89510919  .00000396  00000-0  35430-4 0  9990","OBJECT_NAME":"STARLINK-4453","EPOCH":"2023-05-30T21:28:57.434016","ARG_OF_PERICENTER":"183.0122","REV_AT_EPOCH":"4388","EPHEMERIS_TYPE":"0","APOAPSIS":"565.349","INCLINATION":"97.6583","MEAN_MOTION":"15.01262065","OBJECT_TYPE":"PAYLOAD","TIME_SYSTEM":"UTC"},{"BSTAR":"0.00000926990000","SITE":"AFWTR","CLASSIFICATION_TYPE":"U","MEAN_ELEMENT_THEORY":"SGP4","ECCENTRICITY":"0.00046270","LAUNCH_DATE":"2022-08-12","RCS_SIZE":"MEDIUM","RA_OF_ASC_NODE":"272.2170","TLE_LINE2":"2 53498  97.6553 272.2170 0004627 198.7396 161.3658 15.01263910 43880","GP_ID":"232855155","DECAY_DATE":null,"PERIOD":"95.919","REF_FRAME":"TEME","PERIAPSIS":"559.788","MEAN_ANOMALY":"161.3658","SEMIMAJOR_AXIS":"6941.135","ELEMENT_SET_NO":"999","MEAN_MOTION_DOT":"0.00000060","CENTER_NAME":"EARTH","MEAN_MOTION_DDOT":"0.0000000000000","OBJECT_ID":"2022-099AK","FILE":"3921192","COUNTRY_CODE":"US","NORAD_CAT_ID":"53498","TLE_LINE1":"1 53498U 22099AK  23150.90066024  .00000060  00000-0  92699-5 0  9995","OBJECT_NAME":"STARLINK-4439","EPOCH":"2023-05-30T21:36:57.044736","ARG_OF_PERICENTER":"198.7396","REV_AT_EPOCH":"4388","EPHEMERIS_TYPE":"0","APOAPSIS":"566.211","INCLINATION":"97.6553","MEAN_MOTION":"15.01263910","OBJECT_TYPE":"PAYLOAD","TIME_SYSTEM":"UTC"},{"TIME_SYSTEM":"UTC","INCLINATION":"97.6573","OBJECT_TYPE":"PAYLOAD","MEAN_MOTION":"15.00451339","APOAPSIS":"566.144","ARG_OF_PERICENTER":"106.9373","REV_AT_EPOCH":"4388","EPHEMERIS_TYPE":"0","OBJECT_NAME":"STARLINK-4454","TLE_LINE1":"1 53499U 22099AL  23150.89905077 -.00000037  00000-0  16724-5 0  9994","EPOCH":"2023-05-30T21:34:37.986528","NORAD_CAT_ID":"53499","OBJECT_ID":"2022-099AL","MEAN_MOTION_DDOT":"0.0000000000000","COUNTRY_CODE":"US","FILE":"3921192","MEAN_MOTION_DOT":"-0.00000037","CENTER_NAME":"EARTH","ELEMENT_SET_NO":"999","REF_FRAME":"TEME","PERIAPSIS":"564.867","SEMIMAJOR_AXIS":"6943.641","MEAN_ANOMALY":"253.1951","DECAY_DATE":null,"PERIOD":"95.971","TLE_LINE2":"2 53499  97.6573 272.2143 0000920 106.9373 253.1951 15.00451339 43880","RA_OF_ASC_NODE":"272.2143","GP_ID":"232854905","RCS_SIZE":"LARGE","LAUNCH_DATE":"2022-08-12","ECCENTRICITY":"0.00009200","MEAN_ELEMENT_THEORY":"SGP4","BSTAR":"0.00000167240000","CLASSIFICATION_TYPE":"U","SITE":"AFWTR"},{"NORAD_CAT_ID":"53500","TLE_LINE1":"1 53500U 22099AM  23150.89696079  .00000569  00000-0  48886-4 0  9998","OBJECT_NAME":"STARLINK-4455","EPOCH":"2023-05-30T21:31:37.412256","MEAN_MOTION_DOT":"0.00000569","CENTER_NAME":"EARTH","OBJECT_ID":"2022-099AM","MEAN_MOTION_DDOT":"0.0000000000000","COUNTRY_CODE":"US","FILE":"3921192","INCLINATION":"97.6583","OBJECT_TYPE":"PAYLOAD","MEAN_MOTION":"15.01263623","TIME_SYSTEM":"UTC","ARG_OF_PERICENTER":"179.3508","REV_AT_EPOCH":"4388","EPHEMERIS_TYPE":"0","APOAPSIS":"565.826","ECCENTRICITY":"0.00040710","RCS_SIZE":"LARGE","LAUNCH_DATE":"2022-08-12","BSTAR":"0.00004888600000","CLASSIFICATION_TYPE":"U","SITE":"AFWTR","MEAN_ELEMENT_THEORY":"SGP4","REF_FRAME":"TEME","PERIAPSIS":"560.175","SEMIMAJOR_AXIS":"6941.136","MEAN_ANOMALY":"180.7722","ELEMENT_SET_NO":"999","TLE_LINE2":"2 53500  97.6583 272.2207 0004071 179.3508 180.7722 15.01263623 43889","RA_OF_ASC_NODE":"272.2207","GP_ID":"232854154","DECAY_DATE":null,"PERIOD":"95.919"},{"EPOCH":"2023-05-30T21:16:24.421728","OBJECT_NAME":"STARLINK-4434","TLE_LINE1":"1 53501U 22099AN  23150.88639377  .00000884  00000-0  71905-4 0  9994","NORAD_CAT_ID":"53501","FILE":"3921192","COUNTRY_CODE":"US","MEAN_MOTION_DDOT":"0.0000000000000","OBJECT_ID":"2022-099AN","CENTER_NAME":"EARTH","MEAN_MOTION_DOT":"0.00000884","TIME_SYSTEM":"UTC","OBJECT_TYPE":"PAYLOAD","MEAN_MOTION":"15.02076103","INCLINATION":"97.6567","APOAPSIS":"561.669","REV_AT_EPOCH":"4388","EPHEMERIS_TYPE":"0","ARG_OF_PERICENTER":"92.5717","LAUNCH_DATE":"2022-08-12","RCS_SIZE":"LARGE","ECCENTRICITY":"0.00016890","MEAN_ELEMENT_THEORY":"SGP4","SITE":"AFWTR","CLASSIFICATION_TYPE":"U","BSTAR":"0.00007190500000","ELEMENT_SET_NO":"999","MEAN_ANOMALY":"267.5701","SEMIMAJOR_AXIS":"6938.632","PERIAPSIS":"559.326","REF_FRAME":"TEME","PERIOD":"95.867","DECAY_DATE":null,"GP_ID":"232854404","RA_OF_ASC_NODE":"272.2259","TLE_LINE2":"2 53501  97.6567 272.2259 0001689  92.5717 267.5701 15.02076103 43886"},{"MEAN_ELEMENT_THEORY":"SGP4","CLASSIFICATION_TYPE":"U","SITE":"AFWTR","BSTAR":"-0.00010827000000","RCS_SIZE":"LARGE","LAUNCH_DATE":"2022-08-12","ECCENTRICITY":"0.00022560","DECAY_DATE":null,"PERIOD":"95.919","GP_ID":"232854655","TLE_LINE2":"2 53502  97.6580 272.2223 0002256 167.7629 192.3650 15.01273242 43881","RA_OF_ASC_NODE":"272.2223","ELEMENT_SET_NO":"999","SEMIMAJOR_AXIS":"6941.106","MEAN_ANOMALY":"192.3650","PERIAPSIS":"561.405","REF_FRAME":"TEME","COUNTRY_CODE":"US","FILE":"3921192","OBJECT_ID":"2022-099AP","MEAN_MOTION_DDOT":"0.0000000000000","CENTER_NAME":"EARTH","MEAN_MOTION_DOT":"-0.00001450","EPOCH":"2023-05-30T21:26:17.585376","TLE_LINE1":"1 53502U 22099AP  23150.89325909 -.00001450  00000-0 -10827-3 0  9996","OBJECT_NAME":"STARLINK-4435","NORAD_CAT_ID":"53502","APOAPSIS":"564.537","REV_AT_EPOCH":"4388","EPHEMERIS_TYPE":"0","ARG_OF_PERICENTER":"167.7629","TIME_SYSTEM":"UTC","MEAN_MOTION":"15.01273242","OBJECT_TYPE":"PAYLOAD","INCLINATION":"97.6580"},{"INCLINATION":"97.6558","MEAN_MOTION":"15.01261545","OBJECT_TYPE":"PAYLOAD","TIME_SYSTEM":"UTC","ARG_OF_PERICENTER":"96.9505","REV_AT_EPOCH":"4388","EPHEMERIS_TYPE":"0","APOAPSIS":"563.741","NORAD_CAT_ID":"53503","OBJECT_NAME":"STARLINK-4461","TLE_LINE1":"1 53503U 22099AQ  23150.88770822 -.00000226  00000-0 -13018-4 0  9990","EPOCH":"2023-05-30T21:18:17.990208","MEAN_MOTION_DOT":"-0.00000226","CENTER_NAME":"EARTH","OBJECT_ID":"2022-099AQ","MEAN_MOTION_DDOT":"0.0000000000000","COUNTRY_CODE":"US","FILE":"3921192","PERIAPSIS":"562.273","REF_FRAME":"TEME","SEMIMAJOR_AXIS":"6941.142","MEAN_ANOMALY":"263.1840","ELEMENT_SET_NO":"999","TLE_LINE2":"2 53503  97.6558 272.2225 0001058  96.9505 263.1840 15.01261545 43885","RA_OF_ASC_NODE":"272.2225","GP_ID":"232855406","PERIOD":"95.919","DECAY_DATE":null,"ECCENTRICITY":"0.00010580","RCS_SIZE":"LARGE","LAUNCH_DATE":"2022-08-12","BSTAR":"-0.00001301800000","CLASSIFICATION_TYPE":"U","SITE":"AFWTR","MEAN_ELEMENT_THEORY":"SGP4"},{"REF_FRAME":"TEME","PERIAPSIS":"561.500","MEAN_ANOMALY":"202.1709","SEMIMAJOR_AXIS":"6941.139","ELEMENT_SET_NO":"999","RA_OF_ASC_NODE":"272.2232","TLE_LINE2":"2 53504  97.6560 272.2232 0002167 157.9609 202.1709 15.01262393 43881","GP_ID":"232853654","DECAY_DATE":null,"PERIOD":"95.919","ECCENTRICITY":"0.00021670","LAUNCH_DATE":"2022-08-12","RCS_SIZE":"LARGE","BSTAR":"0.00003890300000","SITE":"AFWTR","CLASSIFICATION_TYPE":"U","MEAN_ELEMENT_THEORY":"SGP4","INCLINATION":"97.6560","MEAN_MOTION":"15.01262393","OBJECT_TYPE":"PAYLOAD","TIME_SYSTEM":"UTC","ARG_OF_PERICENTER":"157.9609","REV_AT_EPOCH":"4388","EPHEMERIS_TYPE":"0","APOAPSIS":"564.509","NORAD_CAT_ID":"53504","OBJECT_NAME":"STARLINK-4448","TLE_LINE1":"1 53504U 22099AR  23150.89141033  .00000441  00000-0  38903-4 0  9995","EPOCH":"2023-05-30T21:23:37.852512","MEAN_MOTION_DOT":"0.00000441","CENTER_NAME":"EARTH","MEAN_MOTION_DDOT":"0.0000000000000","OBJECT_ID":"2022-099AR","FILE":"3921192","COUNTRY_CODE":"US"}];
